STARLINK-36907
1 67940U 26037J   26090.62214181  .00093381  00000+0  15594-2 0  9995
2 67940  42.9973  66.9719 0001224 203.4566 156.6239 15.50923099  6691
